[{"OBJECT_NAME":"OBJECT A","OBJECT_ID":"2023-085A","EPOCH":"2026-03-09T21:42:39.504096","MEAN_MOTION":15.28003151,"ECCENTRICITY":0.00073195,"INCLINATION":97.4858,"RA_OF_ASC_NODE":178.2033,"ARG_OF_PERICENTER":32.2499,"MEAN_ANOMALY":327.9186,"EPHEMERIS_TYPE":0,"CLASSIFICATION_TYPE":"U","NORAD_CAT_ID":57004,"ELEMENT_SET_NO":999,"REV_AT_EPOCH":15139,"BSTAR":0.00063583858,"MEAN_MOTION_DOT":0.0001733,"MEAN_MOTION_DDOT":0},{"OBJECT_NAME":"STARLINK-36000","OBJECT_ID":"2025-278S","EPOCH":"2026-03-09T23:18:12.174336","MEAN_MOTION":15.27622346,"ECCENTRICITY":0.00026836,"INCLINATION":43.0036,"RA_OF_ASC_NODE":112.6446,"ARG_OF_PERICENTER":306.3102,"MEAN_ANOMALY":53.7501,"EPHEMERIS_TYPE":0,"CLASSIFICATION_TYPE":"U","NORAD_CAT_ID":66807,"ELEMENT_SET_NO":999,"REV_AT_EPOCH":1525,"BSTAR":0.0013340565,"MEAN_MOTION_DOT":0.0003668,"MEAN_MOTION_DDOT":0}]
